CCSDS_OEM_VERS = 1.0
CREATION_DATE  = 2017-05-11T11:18:24
ORIGINATOR     = GMAT USER

META_START
OBJECT_NAME          = MOPSSat_alt_35785_km_RAAN_90_107
OBJECT_ID            = SatId
CENTER_NAME          = Earth
REF_FRAME            = EME2000
TIME_SYSTEM          = UTC
START_TIME           = 2017-01-01T00:00:00.000
USEABLE_START_TIME   = 2017-01-01T00:00:00.000
USEABLE_STOP_TIME    = 2017-01-02T00:00:00.000
STOP_TIME            = 2017-01-02T00:00:00.000
INTERPOLATION        = Lagrange
INTERPOLATION_DEGREE = 7 
META_STOP


                                                                                   

2017-01-01T21:41:40.000   2.721648930357873e+04   2.329408782154904e+04  -2.363915410659783e+00  -2.667638401252072e+00   2.383934515594598e+00   6.571884946584162e-05
2017-01-01T21:41:50.000   2.718980112323183e+04   2.331791706287995e+04  -2.363257179906339e+00  -2.669997532084174e+00   2.381913354674211e+00   6.592731325620359e-05
2017-01-01T21:42:00.000   2.716308935839001e+04   2.334172607829191e+04  -2.362596864221660e+00  -2.672355287596309e+00   2.379889321125933e+00   6.613583537663733e-05
2017-01-01T21:42:10.000   2.713635402272364e+04   2.336551483915335e+04  -2.361934463021215e+00  -2.674711663605721e+00   2.377862415307283e+00   6.634441556448425e-05
2017-01-01T21:42:20.000   2.710959512997471e+04   2.338928331680772e+04  -2.361269975723758e+00  -2.677066655924416e+00   2.375832637585134e+00   6.655305355641722e-05
2017-01-01T21:42:30.000   2.708281269398999e+04   2.341303148254702e+04  -2.360603401752265e+00  -2.679420260356491e+00   2.373799988338314e+00   6.676174908816196e-05
2017-01-01T21:42:40.000   2.705600672863899e+04   2.343675930768338e+04  -2.359934740531853e+00  -2.681772472705258e+00   2.371764467951361e+00   6.697050189514387e-05
2017-01-01T21:42:50.000   2.702917724816951e+04   2.346046676323853e+04  -2.359263991498802e+00  -2.684123288742401e+00   2.369726076841638e+00   6.717931170970236e-05
2017-01-01T21:43:00.000   2.700232426677738e+04   2.348415382032075e+04  -2.358591154089677e+00  -2.686472704245408e+00   2.367684815426561e+00   6.738817826445952e-05
2017-01-01T21:43:10.000   2.697544779876622e+04   2.350782044998456e+04  -2.357916227745358e+00  -2.688820714983661e+00   2.365640684135774e+00   6.759710129106885e-05
2017-01-01T21:43:20.000   2.694854785792953e+04   2.353146662377542e+04  -2.357239211895540e+00  -2.691167316772463e+00   2.363593683364167e+00   6.780608052505034e-05
2017-01-01T21:43:30.000   2.692162445816684e+04   2.355509231318636e+04  -2.356560105974182e+00  -2.693512505419157e+00   2.361543813518740e+00   6.801511570096848e-05
2017-01-01T21:43:40.000   2.689467761334462e+04   2.357869748978157e+04  -2.355878909416055e+00  -2.695856276735380e+00   2.359491075008041e+00   6.822420655352824e-05
2017-01-01T21:43:50.000   2.686770733764200e+04   2.360228212488795e+04  -2.355195621665275e+00  -2.698198626506515e+00   2.357435468268378e+00   6.843335281484541e-05
2017-01-01T21:44:00.000   2.684071364529508e+04   2.362584618982499e+04  -2.354510242169050e+00  -2.700539550514453e+00   2.355376993744495e+00   6.864255421647904e-05
2017-01-01T21:44:10.000   2.681369655059557e+04   2.364938965590379e+04  -2.353822770377584e+00  -2.702879044537521e+00   2.353315651889421e+00   6.885181048942427e-05
2017-01-01T21:44:20.000   2.678665606815374e+04   2.367291249420344e+04  -2.353133205750949e+00  -2.705217104328190e+00   2.351251443184688e+00   6.906112136212183e-05
2017-01-01T21:44:30.000   2.675959221254563e+04   2.369641467587344e+04  -2.352441547749940e+00  -2.707553725643214e+00   2.349184368113287e+00   6.927048656314705e-05
2017-01-01T21:44:40.000   2.673250499845161e+04   2.371989617201425e+04  -2.351747795839646e+00  -2.709888904231741e+00   2.347114427170282e+00   6.947990582015021e-05
2017-01-01T21:44:50.000   2.670539444004533e+04   2.374335695420756e+04  -2.351051949473815e+00  -2.712222635888047e+00   2.345041620816132e+00   6.968937886455769e-05
2017-01-01T21:45:00.000   2.667826055160462e+04   2.376679699398594e+04  -2.350354008110478e+00  -2.714554916398817e+00   2.342965949523373e+00   6.989890542687136e-05
2017-01-01T21:45:10.000   2.665110334737382e+04   2.379021626295333e+04  -2.349653971208466e+00  -2.716885741555113e+00   2.340887413766123e+00   7.010848523772938e-05
2017-01-01T21:45:20.000   2.662392284191234e+04   2.381361473247879e+04  -2.348951838236183e+00  -2.719215107121997e+00   2.338806014046626e+00   7.031811802521437e-05
2017-01-01T21:45:30.000   2.659671904983676e+04   2.383699237392486e+04  -2.348247608665184e+00  -2.721543008861157e+00   2.336721750875672e+00   7.052780351684851e-05
2017-01-01T21:45:40.000   2.656949198581967e+04   2.386034915864637e+04  -2.347541281970058e+00  -2.723869442530850e+00   2.334634624772465e+00   7.073754143959871e-05
2017-01-01T21:45:50.000   2.654224166485456e+04   2.388368505776873e+04  -2.346832857635506e+00  -2.726194403863734e+00   2.332544636285068e+00   7.094733151785424e-05
2017-01-01T21:46:00.000   2.651496810190021e+04   2.390700004248788e+04  -2.346122335146931e+00  -2.728517888596823e+00   2.330451785963035e+00   7.115717347614660e-05
2017-01-01T21:46:10.000   2.648767131202315e+04   2.393029408394965e+04  -2.345409713994191e+00  -2.730839892459469e+00   2.328356074368364e+00   7.136706703806090e-05
2017-01-01T21:46:20.000   2.646035130977138e+04   2.395356715378434e+04  -2.344694993655244e+00  -2.733160411226642e+00   2.326257502027428e+00   7.157701193103493e-05
2017-01-01T21:46:30.000   2.643300810980199e+04   2.397681922357072e+04  -2.343978173612542e+00  -2.735479440665525e+00   2.324156069479168e+00   7.178700788155094e-05
2017-01-01T21:46:40.000   2.640564172671945e+04   2.400005026497474e+04  -2.343259253348811e+00  -2.737796976549326e+00   2.322051777262690e+00   7.199705461637384e-05
2017-01-01T21:46:50.000   2.637825217551000e+04   2.402326024937621e+04  -2.342538232358310e+00  -2.740113014620127e+00   2.319944625950557e+00   7.220715185923135e-05
2017-01-01T21:47:00.000   2.635083947118355e+04   2.404644914817744e+04  -2.341815110137591e+00  -2.742427550619595e+00   2.317834616121392e+00   7.241729933354758e-05
2017-01-01T21:47:10.000   2.632340362885359e+04   2.406961693273421e+04  -2.341089886187556e+00  -2.744740580282136e+00   2.315721748365986e+00   7.262749676183824e-05
2017-01-01T21:47:20.000   2.629594466371705e+04   2.409276357437611e+04  -2.340362560013042e+00  -2.747052099336878e+00   2.313606023285849e+00   7.283774386584354e-05
2017-01-01T21:47:30.000   2.626846259102551e+04   2.411588904442829e+04  -2.339633131121973e+00  -2.749362103509886e+00   2.311487441490928e+00   7.304804036677249e-05
2017-01-01T21:47:40.000   2.624095742607551e+04   2.413899331422013e+04  -2.338901599025122e+00  -2.751670588525031e+00   2.309366003598894e+00   7.325838598536727e-05
2017-01-01T21:47:50.000   2.621342918411104e+04   2.416207635516858e+04  -2.338167963233567e+00  -2.753977550112307e+00   2.307241710227643e+00   7.346878044268553e-05
2017-01-01T21:48:00.000   2.618587788038809e+04   2.418513813872231e+04  -2.337432223260346e+00  -2.756282984002275e+00   2.305114562000260e+00   7.367922345957013e-05
2017-01-01T21:48:10.000   2.615830353017491e+04   2.420817863636196e+04  -2.336694378620495e+00  -2.758586885926093e+00   2.302984559545048e+00   7.388971475666031e-05
2017-01-01T21:48:20.000   2.613070614868544e+04   2.423119781965430e+04  -2.335954428829199e+00  -2.760889251620969e+00   2.300851703490358e+00   7.410025405486490e-05
2017-01-01T21:48:30.000   2.610308575117854e+04   2.425419566017060e+04  -2.335212373404497e+00  -2.763190076821972e+00   2.298715994472289e+00   7.431084107463954e-05
2017-01-01T21:48:40.000   2.607544235296819e+04   2.427717212947849e+04  -2.334468211867579e+00  -2.765489357261235e+00   2.296577433135503e+00   7.452147553589927e-05
2017-01-01T21:48:50.000   2.604777596944958e+04   2.430012719911787e+04  -2.333721943743392e+00  -2.767787088665576e+00   2.294436020135178e+00   7.473215715784304e-05
2017-01-01T21:49:00.000   2.602008661612298e+04   2.432306084058424e+04  -2.332973568561399e+00  -2.770083266754800e+00   2.292291756138951e+00   7.494288565875134e-05
2017-01-01T21:49:10.000   2.599237430851163e+04   2.434597302539552e+04  -2.332223085853324e+00  -2.772377887248412e+00   2.290144641820532e+00   7.515366075661905e-05
2017-01-01T21:49:20.000   2.596463906252916e+04   2.436886372479241e+04  -2.331470495163246e+00  -2.774670945835557e+00   2.287994677888286e+00   7.536448216634304e-05
2017-01-01T21:49:30.000   2.593688089403488e+04   2.439173291010218e+04  -2.330715796035421e+00  -2.776962438211512e+00   2.285841865050690e+00   7.557534960312358e-05
2017-01-01T21:49:40.000   2.590909981899896e+04   2.441458055260323e+04  -2.329958988018791e+00  -2.779252360064127e+00   2.283686204029159e+00   7.578626278120094e-05
2017-01-01T21:49:50.000   2.588129585286358e+04   2.443740662405103e+04  -2.329200070649605e+00  -2.781540707126521e+00   2.281527695508499e+00   7.599722141873811e-05
2017-01-01T21:50:00.000   2.585346901118004e+04   2.446021109615343e+04  -2.328439043468748e+00  -2.783827475124531e+00   2.279366340186329e+00   7.620822523295147e-05
2017-01-01T21:50:10.000   2.582561930946476e+04   2.448299394069012e+04  -2.327675906017855e+00  -2.786112659788662e+00   2.277202138761948e+00   7.641927394121824e-05
2017-01-01T21:50:20.000   2.579774676355686e+04   2.450575512921456e+04  -2.326910657848912e+00  -2.788396256824293e+00   2.275035091963976e+00   7.663036725831816e-05
2017-01-01T21:50:30.000   2.576985138935365e+04   2.452849463327629e+04  -2.326143298517213e+00  -2.790678261933886e+00   2.272865200529968e+00   7.684150489848831e-05
2017-01-01T21:50:40.000   2.574193320280941e+04   2.455121242441971e+04  -2.325373827581259e+00  -2.792958670816913e+00   2.270692465206257e+00   7.705268657541490e-05
